[{"OBJECT_NAME":"STARLINK-3366","OBJECT_ID":"2022-005A","EPOCH":"2025-09-03T17:51:05.021568","MEAN_MOTION":15.0883406,"ECCENTRICITY":0.00012559,"INCLINATION":53.2177,"RA_OF_ASC_NODE":48.3526,"ARG_OF_PERICENTER":91.983,"MEAN_ANOMALY":268.1306,"EPHEMERIS_TYPE":0,"CLASSIFICATION_TYPE":"U","NORAD_CAT_ID":51104,"ELEMENT_SET_NO":999,"REV_AT_EPOCH":20065,"BSTAR":2.8555449e-5,"MEAN_MOTION_DOT":1.67e-6,"MEAN_MOTION_DDOT":0},{"OBJECT_NAME":"STARLINK-3350","OBJECT_ID":"2022-005B","EPOCH":"2025-09-03T17:13:58.765728","MEAN_MOTION":15.08842302,"ECCENTRICITY":0.00012954,"INCLINATION":53.2182,"RA_OF_ASC_NODE":48.4719,"ARG_OF_PERICENTER":85.163,"MEAN_ANOMALY":274.951,"EPHEMERIS_TYPE":0,"CLASSIFICATION_TYPE":"U","NORAD_CAT_ID":51105,"ELEMENT_SET_NO":999,"REV_AT_EPOCH":20065,"BSTAR":6.7697632e-5,"MEAN_MOTION_DOT":7.9e-6,"MEAN_MOTION_DDOT":0},{"OBJECT_NAME":"STARLINK-3176","OBJECT_ID":"2022-005C","EPOCH":"2025-09-03T16:42:11.709504","MEAN_MOTION":15.08835475,"ECCENTRICITY":0.00013747,"INCLINATION":53.2197,"RA_OF_ASC_NODE":48.5683,"ARG_OF_PERICENTER":92.5327,"MEAN_ANOMALY":267.5822,"EPHEMERIS_TYPE":0,"CLASSIFICATION_TYPE":"U","NORAD_CAT_ID":51106,"ELEMENT_SET_NO":999,"REV_AT_EPOCH":20064,"BSTAR":2.763926e-6,"MEAN_MOTION_DOT":-2.44e-6,"MEAN_MOTION_DDOT":0},{"OBJECT_NAME":"STARLINK-3362","OBJECT_ID":"2022-005E","EPOCH":"2025-09-03T17:08:40.682400","MEAN_MOTION":15.08862102,"ECCENTRICITY":0.00012531,"INCLINATION":53.2189,"RA_OF_ASC_NODE":48.4891,"ARG_OF_PERICENTER":76.5615,"MEAN_ANOMALY":283.5517,"EPHEMERIS_TYPE":0,"CLASSIFICATION_TYPE":"U","NORAD_CAT_ID":51108,"ELEMENT_SET_NO":999,"REV_AT_EPOCH":20065,"BSTAR":-0.00032889888,"MEAN_MOTION_DOT":-5.522e-5,"MEAN_MOTION_DDOT":0},{"OBJECT_NAME":"STARLINK-3358","OBJECT_ID":"2022-005F","EPOCH":"2025-09-03T17:35:10.318848","MEAN_MOTION":15.08838685,"ECCENTRICITY":0.0001229,"INCLINATION":53.218,"RA_OF_ASC_NODE":48.3552,"ARG_OF_PERICENTER":95.8969,"MEAN_ANOMALY":264.2163,"EPHEMERIS_TYPE":0,"CLASSIFICATION_TYPE":"U","NORAD_CAT_ID":51109,"ELEMENT_SET_NO":999,"REV_AT_EPOCH":20042,"BSTAR":1.8163703e-5,"MEAN_MOTION_DOT":1.0e-8,"MEAN_MOTION_DDOT":0},{"OBJECT_NAME":"STARLINK-3344","OBJECT_ID":"2022-005G","EPOCH":"2025-09-03T18:28:09.889824","MEAN_MOTION":15.0884121,"ECCENTRICITY":0.00012186,"INCLINATION":53.2179,"RA_OF_ASC_NODE":48.2165,"ARG_OF_PERICENTER":87.8106,"MEAN_ANOMALY":272.3025,"EPHEMERIS_TYPE":0,"CLASSIFICATION_TYPE":"U","NORAD_CAT_ID":51110,"ELEMENT_SET_NO":999,"REV_AT_EPOCH":20066,"BSTAR":8.2224392e-5,"MEAN_MOTION_DOT":1.021e-5,"MEAN_MOTION_DDOT":0},{"OBJECT_NAME":"STARLINK-3173","OBJECT_ID":"2022-005H","EPOCH":"2025-09-03T17:56:22.349760","MEAN_MOTION":15.08839765,"ECCENTRICITY":0.0001284,"INCLINATION":53.218,"RA_OF_ASC_NODE":48.3358,"ARG_OF_PERICENTER":93.155,"MEAN_ANOMALY":266.9589,"EPHEMERIS_TYPE":0,"CLASSIFICATION_TYPE":"U","NORAD_CAT_ID":51111,"ELEMENT_SET_NO":999,"REV_AT_EPOCH":20065,"BSTAR":5.2284334e-5,"MEAN_MOTION_DOT":5.44e-6,"MEAN_MOTION_DDOT":0},{"OBJECT_NAME":"STARLINK-3374","OBJECT_ID":"2022-005J","EPOCH":"2025-09-03T18:24:14.897376","MEAN_MOTION":15.08838021,"ECCENTRICITY":0.00013253,"INCLINATION":53.2186,"RA_OF_ASC_NODE":48.2196,"ARG_OF_PERICENTER":78.6805,"MEAN_ANOMALY":281.4336,"EPHEMERIS_TYPE":0,"CLASSIFICATION_TYPE":"U","NORAD_CAT_ID":51112,"ELEMENT_SET_NO":999,"REV_AT_EPOCH":20066,"BSTAR":4.6659483e-5,"MEAN_MOTION_DOT":4.55e-6,"MEAN_MOTION_DDOT":0},{"OBJECT_NAME":"STARLINK-3372","OBJECT_ID":"2022-005K","EPOCH":"2025-09-03T18:12:16.579872","MEAN_MOTION":15.08838583,"ECCENTRICITY":0.00015023,"INCLINATION":53.2186,"RA_OF_ASC_NODE":48.289,"ARG_OF_PERICENTER":95.4513,"MEAN_ANOMALY":264.665,"EPHEMERIS_TYPE":0,"CLASSIFICATION_TYPE":"U","NORAD_CAT_ID":51113,"ELEMENT_SET_NO":999,"REV_AT_EPOCH":20065,"BSTAR":-4.4856109e-5,"MEAN_MOTION_DOT":-1.002e-5,"MEAN_MOTION_DDOT":0},{"OBJECT_NAME":"STARLINK-3375","OBJECT_ID":"2022-005L","EPOCH":"2025-09-03T17:03:24.225120","MEAN_MOTION":15.08839482,"ECCENTRICITY":0.00014399,"INCLINATION":53.2186,"RA_OF_ASC_NODE":48.5036,"ARG_OF_PERICENTER":82.2613,"MEAN_ANOMALY":277.8542,"EPHEMERIS_TYPE":0,"CLASSIFICATION_TYPE":"U","NORAD_CAT_ID":51114,"ELEMENT_SET_NO":999,"REV_AT_EPOCH":20065,"BSTAR":-4.9862888e-5,"MEAN_MOTION_DOT":-1.081e-5,"MEAN_MOTION_DDOT":0},{"OBJECT_NAME":"STARLINK-3397","OBJECT_ID":"2022-005M","EPOCH":"2025-09-03T18:01:41.108736","MEAN_MOTION":15.08831369,"ECCENTRICITY":0.00014176,"INCLINATION":53.219,"RA_OF_ASC_NODE":48.3196,"ARG_OF_PERICENTER":97.5606,"MEAN_ANOMALY":262.5547,"EPHEMERIS_TYPE":0,"CLASSIFICATION_TYPE":"U","NORAD_CAT_ID":51115,"ELEMENT_SET_NO":999,"REV_AT_EPOCH":20065,"BSTAR":9.3336606e-5,"MEAN_MOTION_DOT":1.197e-5,"MEAN_MOTION_DDOT":0},{"OBJECT_NAME":"STARLINK-3243","OBJECT_ID":"2022-005N","EPOCH":"2025-09-03T18:18:58.636224","MEAN_MOTION":15.08829625,"ECCENTRICITY":0.00011929,"INCLINATION":53.2186,"RA_OF_ASC_NODE":48.2366,"ARG_OF_PERICENTER":91.0692,"MEAN_ANOMALY":269.0437,"EPHEMERIS_TYPE":0,"CLASSIFICATION_TYPE":"U","NORAD_CAT_ID":51116,"ELEMENT_SET_NO":999,"REV_AT_EPOCH":20065,"BSTAR":-4.9962988e-5,"MEAN_MOTION_DOT":-1.083e-5,"MEAN_MOTION_DDOT":0},{"OBJECT_NAME":"STARLINK-3391","OBJECT_ID":"2022-005P","EPOCH":"2025-09-03T17:24:33.530112","MEAN_MOTION":15.08843607,"ECCENTRICITY":0.0001327,"INCLINATION":53.2185,"RA_OF_ASC_NODE":48.3278,"ARG_OF_PERICENTER":92.7863,"MEAN_ANOMALY":267.3281,"EPHEMERIS_TYPE":0,"CLASSIFICATION_TYPE":"U","NORAD_CAT_ID":51117,"ELEMENT_SET_NO":999,"REV_AT_EPOCH":20065,"BSTAR":-1.8842003e-5,"MEAN_MOTION_DOT":-5.88e-6,"MEAN_MOTION_DDOT":0},{"OBJECT_NAME":"STARLINK-3394","OBJECT_ID":"2022-005Q","EPOCH":"2025-09-03T18:06:58.474944","MEAN_MOTION":15.08839763,"ECCENTRICITY":0.00012953,"INCLINATION":53.2186,"RA_OF_ASC_NODE":48.3036,"ARG_OF_PERICENTER":97.7381,"MEAN_ANOMALY":262.3758,"EPHEMERIS_TYPE":0,"CLASSIFICATION_TYPE":"U","NORAD_CAT_ID":51118,"ELEMENT_SET_NO":999,"REV_AT_EPOCH":20065,"BSTAR":7.44777e-7,"MEAN_MOTION_DOT":-2.76e-6,"MEAN_MOTION_DDOT":0},{"OBJECT_NAME":"STARLINK-3398","OBJECT_ID":"2022-005S","EPOCH":"2025-09-03T17:25:57.677664","MEAN_MOTION":15.08839133,"ECCENTRICITY":0.00014519,"INCLINATION":53.2195,"RA_OF_ASC_NODE":48.4419,"ARG_OF_PERICENTER":109.9092,"MEAN_ANOMALY":250.2057,"EPHEMERIS_TYPE":0,"CLASSIFICATION_TYPE":"U","NORAD_CAT_ID":51120,"ELEMENT_SET_NO":999,"REV_AT_EPOCH":20065,"BSTAR":-6.386947e-6,"MEAN_MOTION_DOT":-3.9e-6,"MEAN_MOTION_DDOT":0},{"OBJECT_NAME":"STARLINK-3399","OBJECT_ID":"2022-005T","EPOCH":"2025-09-03T17:47:09.574656","MEAN_MOTION":15.08835709,"ECCENTRICITY":0.00012846,"INCLINATION":53.2186,"RA_OF_ASC_NODE":48.3739,"ARG_OF_PERICENTER":89.0135,"MEAN_ANOMALY":271.1004,"EPHEMERIS_TYPE":0,"CLASSIFICATION_TYPE":"U","NORAD_CAT_ID":51121,"ELEMENT_SET_NO":999,"REV_AT_EPOCH":20065,"BSTAR":-5.722724e-6,"MEAN_MOTION_DOT":-3.79e-6,"MEAN_MOTION_DDOT":0}]
