STARLINK-3366           
1 51104U 22005A   25246.74380812  .00000167  00000+0  28555-4 0  9994
2 51104  53.2177  48.3526 0001255  91.9830 268.1306 15.08834060200653
STARLINK-3350           
1 51105U 22005B   25246.71804127  .00000790  00000+0  67698-4 0  9995
2 51105  53.2182  48.4719 0001295  85.1630 274.9510 15.08842302200652
STARLINK-3176           
1 51106U 22005C   25246.69596886 -.00000244  00000+0  27639-5 0  9990
2 51106  53.2197  48.5683 0001374  92.5327 267.5822 15.08835475200649
STARLINK-3362           
1 51108U 22005E   25246.71435975 -.00005522  00000+0 -32890-3 0  9994
2 51108  53.2189  48.4891 0001253  76.5615 283.5517 15.08862102200657
STARLINK-3358           
1 51109U 22005F   25246.73275832  .00000001  00000+0  18164-4 0  9995
2 51109  53.2180  48.3552 0001229  95.8969 264.2163 15.08838685200428
STARLINK-3344           
1 51110U 22005G   25246.76955891  .00001021  00000+0  82224-4 0  9991
2 51110  53.2179  48.2165 0001218  87.8106 272.3025 15.08841210200660
STARLINK-3173           
1 51111U 22005H   25246.74748090  .00000544  00000+0  52284-4 0  9993
2 51111  53.2180  48.3358 0001284  93.1550 266.9589 15.08839765200659
STARLINK-3374           
1 51112U 22005J   25246.76683909  .00000455  00000+0  46659-4 0  9993
2 51112  53.2186  48.2196 0001325  78.6805 281.4336 15.08838021200669
STARLINK-3372           
1 51113U 22005K   25246.75852523 -.00001002  00000+0 -44856-4 0  9991
2 51113  53.2186  48.2890 0001502  95.4513 264.6650 15.08838583200655
STARLINK-3375           
1 51114U 22005L   25246.71069705 -.00001081  00000+0 -49863-4 0  9990
2 51114  53.2186  48.5036 0001439  82.2613 277.8542 15.08839482200650
STARLINK-3397           
1 51115U 22005M   25246.75117024  .00001197  00000+0  93337-4 0  9994
2 51115  53.2190  48.3196 0001417  97.5606 262.5547 15.08831369200650
STARLINK-3243           
1 51116U 22005N   25246.76317866 -.00001083  00000+0 -49963-4 0  9994
2 51116  53.2186  48.2366 0001192  91.0692 269.0437 15.08829625200650
STARLINK-3391           
1 51117U 22005P   25246.72538808 -.00000588  00000+0 -18842-4 0  9993
2 51117  53.2185  48.3278 0001327  92.7863 267.3281 15.08843607200655
STARLINK-3394           
1 51118U 22005Q   25246.75484346 -.00000276  00000+0  74478-6 0  9996
2 51118  53.2186  48.3036 0001295  97.7381 262.3758 15.08839763200655
STARLINK-3398           
1 51120U 22005S   25246.72636201 -.00000390  00000+0 -63869-5 0  9994
2 51120  53.2195  48.4419 0001451 109.9092 250.2057 15.08839133200652
STARLINK-3399           
1 51121U 22005T   25246.74108304 -.00000379  00000+0 -57227-5 0  9993
2 51121  53.2186  48.3739 0001284  89.0135 271.1004 15.08835709200656
